234P/LINEAR,e,11.5151,179.6280,357.6906,3.808961,0.1325850,0.25362520,73.6200,12/07.0/2018,2000,g 12.0,4.0
# From MPC110497
235P/LINEAR,e,8.8999,204.4497,333.8242,3.997116,0.1233343,0.31651594,32.5817,12/07.0/2018,2000,g 12.0,4.0
# From MPC107688
236P/LINEAR,e,16.3339,245.6703,119.2435,3.733337,0.1366338,0.50792303,52.1764,12/07.0/2018,2000,g 14.0,4.0
# From MPC109593
237P/LINEAR,e,14.0248,245.4226,25.1111,3.511969,0.1497539,0.43474991,117.7141,12/07.0/2018,2000,g 14.5,2.0
# From MPC107688
238P/Read,e,1.2645,51.6446,324.8133,3.163195,0.1751923,0.25232796,135.9249,12/07.0/2018,2000,g 14.5,4.0
# From MPC112394
239P/LINEAR,e,11.3055,255.9082,220.3777,4.470961,0.1042564,0.63106912,356.4388,12/07.0/2018,2000,g 17.5,2.0
# From MPC109593
240P/NEAT,e,23.5041,74.9263,352.0817,3.871519,0.1293844,0.44887492,26.5456,12/07.0/2018,2000,g 11.0,4.0
# From MPC 75729
241P/LINEAR,e,20.9063,305.6677,110.5532,4.961258,0.0891900,0.60890902,274.1650,12/07.0/2018,2000,g 13.5,4.0
# From MPC 81861
242P/Spahr,e,32.4875,180.6010,246.4833,5.474903,0.0769377,0.27755521,188.6347,12/07.0/2018,2000,g  8.0,4.0
# From MPC111774
243P/NEAT,e,7.6415,87.6584,283.5562,3.831356,0.1314242,0.35938001,13.5352,12/07.0/2018,2000,g 12.5,4.0
# From MPC 88331
244P/Scotti,e,2.2583,354.0047,92.8477,4.896481,0.0909658,0.19748704,228.8807,12/07.0/2018,2000,g  9.0,4.0
# From MPC111774
245P/WISE,e,21.1988,316.6764,316.6977,4.039189,0.1214123,0.45776707,36.5817,12/07.0/2018,2000,g 14.0,4.0
# From MPC 93589
246P/NEAT,e,15.9869,78.7504,176.1048,4.018881,0.1223338,0.28670511,261.1371,12/07.0/2018,2000,g 10.5,4.0
# From MPC112394
247P/LINEAR,e,13.6615,54.0108,47.4491,3.971094,0.1245486,0.62502498,0.6098,12/07.0/2018,2000,g 16.5,2.0
# From MPC 75730
248P/Gibbs,e,6.3488,207.7628,210.0209,5.987423,0.0672735,0.63781297,193.0895,12/07.0/2018,2000,g 14.0,4.0
# From MPC105243
249P/LINEAR,e,8.3968,239.1896,65.5770,2.762044,0.2147130,0.81989600,237.4911,12/07.0/2018,2000,g 15.5,4.0
# From MPC110497
250P/Larson,e,13.2912,73.6779,45.1403,3.731891,0.1367132,0.40686537,42.0615,12/07.0/2018,2000,g 14.5,4.0
# From MPC104795
251P/LINEAR,e,23.4196,219.4073,31.1925,3.507783,0.1500220,0.50588612,76.2752,12/07.0/2018,2000,g 16.5,2.0
# From MPC102956
252P/LINEAR,e,10.4184,190.9534,343.3455,3.048084,0.1852097,0.67249335,184.6580,12/07.0/2018,2000,g 17.5,4.0
# From MPC112394
253P/PANSTARRS,e,4.9404,146.8785,230.7197,3.469789,0.1524928,0.41302868,32.5254,12/07.0/2018,2000,g 14.5,4.0
# From MPC 81473
254P/McNaught,e,32.4854,129.2959,219.2295,4.627680,0.0990054,0.32212308,294.4894,12/07.0/2018,2000,g 11.0,4.0
# From NK 2214
255P/Levy,e,18.3591,279.4916,179.8593,3.037555,0.1861735,0.66926617,108.3866,12/07.0/2018,2000,g 20.0,4.0
# From MPC 84027
256P/LINEAR,e,27.6388,81.3494,124.3151,4.634488,0.0987874,0.41916089,206.3903,12/07.0/2018,2000,g 14.0,2.0
# From MPC 88332
257P/Catalina,e,20.2381,207.7831,117.7942,3.758931,0.1352407,0.43071608,272.8740,12/07.0/2018,2000,g 11.5,4.0
# From MPC 79655
258P/PANSTARRS,e,6.7443,126.2541,26.1212,4.404676,0.1066186,0.20969059,300.2330,12/07.0/2018,2000,g 13.0,4.0
# From MPC106349
259P/Garradd,e,15.8891,51.4821,257.5200,2.732000,0.2182645,0.33794720,106.9232,12/07.0/2018,2000,g 15.5,4.0
# From MPC102102
260P/McNaught,e,15.0508,349.3883,18.3234,3.624075,0.1428593,0.60900492,320.4428,12/07.0/2018,2000,g 13.5,4.0
# From MPC102102
261P/Larson,e,6.0758,291.1667,67.0914,3.488198,0.1512873,0.42276583,330.7094,12/07.0/2018,2000,g 14.0,4.0
# From MPC 82322
262P/McNaught-Russell,e,29.1179,217.9372,171.0206,6.881599,0.0545972,0.81437153,120.0049,12/07.0/2018,2000,g 13.5,4.0
# From MPC 82323
263P/Gibbs,e,11.5401,105.8065,34.5618,3.059918,0.1841363,0.58787647,79.7466,12/07.0/2018,2000,g 18.0,4.0
# From MPC102102
264P/Larsen,e,25.1506,220.9030,346.6108,3.893904,0.1282703,0.37372886,329.0995,12/07.0/2018,2000,g 13.0,4.0
# From MPC 79870
265P/LINEAR,e,14.3867,343.3908,33.2994,4.239916,0.1128933,0.64897485,270.2705,12/07.0/2018,2000,g 14.5,4.0
# From MPC 90771
266P/Christensen,e,3.4273,5.0084,97.9263,3.533639,0.1483784,0.33937949,285.8632,12/07.0/2018,2000,g 12.5,4.0
# From MPC 81862
267P/LONEOS,e,6.1380,228.6888,114.0823,3.212395,0.1711830,0.61364447,23.5683,12/07.0/2018,2000,g 19.5,4.0
# From MPC 92277
268P/Bernardi,e,16.1089,127.5939,0.2286,4.556912,0.1013207,0.46959863,133.8371,12/07.0/2018,2000,g 14.0,4.0
# From MPC104795
269P/Jedicke,e,7.0731,241.7033,226.0775,7.086906,0.0522419,0.43250717,79.5163,12/07.0/2018,2000,g 10.0,4.0
# From MPC 88332
270P/Gehrels,e,2.9168,222.9586,210.0730,6.673931,0.0571652,0.46721128,114.6096,12/07.0/2018,2000,g  8.0,4.0
# From MPC 92277
271P/van Houten-Lemmon,e,6.8587,9.2900,36.6617,7.057750,0.0525660,0.39256049,103.8530,12/07.0/2018,2000,g 11.0,4.0
# From MPC 81862
272P/NEAT,e,18.0788,109.4767,28.0788,4.450640,0.1049712,0.45448541,221.5871,12/07.0/2018,2000,g 16.0,2.0
# From MPC 82723
273P/Pons-Gambart,e,136.6094,320.4002,20.2241,31.58024,0.0055537,0.97408240,0.0000,12/16.7303/2012,2000,g 11.5,4.0
# From MPC 88332
274P/Tombaugh-Tenagra,e,15.8182,81.3387,38.5991,4.367965,0.1079656,0.43868783,228.3637,12/07.0/2018,2000,g 13.0,4.0
# From MPC 81862
275P/Hermann,e,21.3159,348.7456,174.1395,5.768446,0.0711403,0.71338369,154.4888,12/07.0/2018,2000,g 15.0,4.0
# From MPC 84935
276P/Vorobjov,e,14.8905,211.6264,200.5712,5.295011,0.0808917,0.27004090,181.3542,12/07.0/2018,2000,g 11.5,4.0
# From MPC105243
277P/LINEAR,e,16.7714,276.3372,152.1685,3.856156,0.1301584,0.50466968,261.7978,12/07.0/2018,2000,g 14.0,4.0
# From MPC105243
278P/McNaught,e,6.6838,15.4648,237.9928,3.695078,0.1387614,0.43479121,270.5066,12/07.0/2018,2000,g 14.0,4.0
# From MPC 10028
279P/La Sagra,e,5.0479,346.2262,5.7841,3.577931,0.1456317,0.39722469,127.5117,12/07.0/2018,2000,g 14.0,4.0
# From MPC 89013
280P/Larsen,e,11.7707,131.4294,104.7232,4.528437,0.1022778,0.41847044,186.1599,12/07.0/2018,2000,g 12.5,4.0
# From MPC 83145
281P/MOSS,e,4.7199,87.1723,27.1524,4.865740,0.0918292,0.17154738,220.2550,12/07.0/2018,2000,g 11.0,4.0
# From unp
282P/,e,5.8088,9.3309,217.2764,4.248072,0.1125684,0.18952472,241.7436,12/07.0/2018,2000,g 13.5,2.0
# From MPC 84027
283P/Spacewatch,e,14.4579,161.1745,22.2785,4.138053,0.1170874,0.48555215,242.2492,12/07.0/2018,2000,g 16.0,2.0
# From MPC 93589
284P/McNaught,e,11.8592,144.2909,202.7569,3.672685,0.1400324,0.37568350,218.2808,12/07.0/2018,2000,g 13.0,4.0
# From MPC 85339
285P/LINEAR,e,25.0119,185.4751,178.4330,4.509311,0.1029292,0.61747122,205.7067,12/07.0/2018,2000,g 15.0,4.0
# From MPC 90771
286P/Christensen,e,17.0422,283.9550,24.6872,4.114212,0.1181066,0.42452754,212.0166,12/07.0/2018,2000,g 14.0,4.0
# From MPC 96868
287P/Christensen,e,16.3108,139.0307,188.8071,4.171469,0.1156833,0.26967352,166.5917,12/07.0/2018,2000,g 13.5,4.0
# From unp
288P/,e,3.2403,83.1870,280.8799,3.047486,0.1852642,0.20117710,140.6691,12/07.0/2018,2000,g 16.0,2.0
# From MPC102102
289P/Blanpain,e,5.8979,68.9295,9.8254,3.045562,0.1854398,0.68498022,289.7153,12/07.0/2018,2000,g 10.0,4.0
# From MPC 95214
290P/Jager,e,19.1429,303.2942,180.8996,6.130939,0.0649252,0.64764066,112.3876,12/07.0/2018,2000,g 10.5,4.0
# From MPC 89314
291P/NEAT,e,6.3866,238.3510,174.9219,4.476813,0.1040520,0.44279124,192.0730,12/07.0/2018,2000,g 13.0,4.0
# From MPC110085
292P/Li,e,24.2525,91.0001,319.5640,6.115230,0.0651756,0.58721860,115.4309,12/07.0/2018,2000,g 12.5,4.0
# From MPC 92278
293P/Spacewatch,e,9.0574,78.4107,41.1693,3.640820,0.1418748,0.41820752,254.5143,12/07.0/2018,2000,g 14.5,4.0
# From MPC 89013
294P/LINEAR,e,18.2130,312.6069,235.5143,3.205638,0.1717245,0.59431526,298.5756,12/07.0/2018,2000,g 15.5,4.0
# From MPC 93589
295P/LINEAR,e,21.0887,7.5039,73.0012,5.307614,0.0806037,0.61642580,134.6743,12/07.0/2018,2000,g 12.0,4.0
# From MPC 92278
296P/Garradd,e,25.2340,263.6400,350.0540,3.498754,0.1506031,0.47844868,261.9826,12/07.0/2018,2000,g 14.0,4.0
# From MPC102956
297P/Beshore,e,10.3276,97.6614,132.3707,3.445137,0.1541325,0.31947838,240.1788,12/07.0/2018,2000,g 15.0,4.0
# From MPC105243
298P/Christensen,e,7.8718,52.8301,100.7423,3.592974,0.1447181,0.38719205,267.4698,12/07.0/2018,2000,g 15.0,4.0
# From MPC101100
299P/Catalina-PANSTARRS,e,10.4771,271.6286,323.8193,4.381391,0.1074697,0.28263897,148.4501,12/07.0/2018,2000,g 11.5,4.0
# From MPC111774
300P/Catalina,e,5.6761,95.6740,222.8485,2.699242,0.2222498,0.69146584,7.7673,12/07.0/2018,2000,g 16.0,4.0
# From MPC 89014
301P/LINEAR-NEAT,e,10.3571,351.1762,193.7156,5.734526,0.0717725,0.58672016,111.7815,12/07.0/2018,2000,g 13.0,4.0
# From MPC108598
302P/Lemmon-PANSTARRS,e,6.0319,121.7558,208.1770,4.279657,0.1113245,0.22905492,105.8450,12/07.0/2018,2000,g 12.5,4.0
# From MPC 92278
303P/NEAT,e,7.0093,347.9852,356.8563,5.053225,0.0867663,0.50902585,131.4995,12/07.0/2018,2000,g 13.5,4.0
# From MPC 92987
304P/Ory,e,2.6408,59.0690,335.0294,3.156502,0.1757499,0.60430586,252.4723,12/07.0/2018,2000,g 16.5,4.0
# From MPC101100
305P/Skiff,e,11.6366,240.1477,147.2935,4.646896,0.0983920,0.69226592,145.8810,12/07.0/2018,2000,g 18.0,4.0
# From MPC 92278
306P/LINEAR,e,8.3136,341.4374,0.8130,3.120403,0.1788084,0.59350249,286.3584,12/07.0/2018,2000,g 19.0,4.0
# From MPC 91619
307P/LINEAR,e,4.4266,158.0964,222.2595,5.800050,0.0705596,0.67319171,102.2413,12/07.0/2018,2000,g 15.0,4.0
# From MPC109148
308P/Lagerkvist-Carsenty,e,4.8489,63.1341,333.8020,6.616587,0.0579099,0.36203290,75.9595,12/07.0/2018,2000,g 13.0,2.0
# From MPC 94284
309P/LINEAR,e,17.0653,10.2932,49.9705,4.368237,0.1079555,0.61859081,150.2481,12/07.0/2018,2000,g 15.0,4.0
# From MPC 98566
310P/Hill,e,13.1400,8.9576,31.9744,4.174859,0.1155424,0.42246975,153.8178,12/07.0/2018,2000,g 13.5,4.0
# From MPC109593
311P/PANSTARRS,e,4.9672,279.2405,144.1354,2.189184,0.3042850,0.11528924,156.4398,12/07.0/2018,2000,g 17.0,4.0
# From MPC 92279
312P/NEAT,e,19.7606,144.7903,207.6243,3.463935,0.1528796,0.42885665,259.3846,12/07.0/2018,2000,g 16.0,4.0
# From MPC111774
313P/Gibbs,e,10.9720,105.9958,254.2884,3.166570,0.1749123,0.23590015,273.6131,12/07.0/2018,2000,g 15.0,4.0
# From MPC105243
